[{"OBJECT_NAME":"STARLINK-4711","OBJECT_ID":"2022-107B","EPOCH":"2026-03-09T17:11:03.946560","MEAN_MOTION":15.08835561,"ECCENTRICITY":0.00011939,"INCLINATION":53.2163,"RA_OF_ASC_NODE":243.5898,"ARG_OF_PERICENTER":93.4654,"MEAN_ANOMALY":266.6474,"EPHEMERIS_TYPE":0,"CLASSIFICATION_TYPE":"U","NORAD_CAT_ID":53701,"ELEMENT_SET_NO":999,"REV_AT_EPOCH":19486,"BSTAR":-2.6453034e-5,"MEAN_MOTION_DOT":-7.09e-6,"MEAN_MOTION_DDOT":0},{"OBJECT_NAME":"UNKNOWN","OBJECT_ID":"","EPOCH":"2026-03-07T17:21:07.805664","MEAN_MOTION":15.09455608,"ECCENTRICITY":0.0009057,"INCLINATION":82.8696,"RA_OF_ASC_NODE":177.6495,"ARG_OF_PERICENTER":167.3062,"MEAN_ANOMALY":192.8398,"EPHEMERIS_TYPE":0,"CLASSIFICATION_TYPE":"U","NORAD_CAT_ID":87725,"ELEMENT_SET_NO":999,"REV_AT_EPOCH":64668,"BSTAR":0.0060116,"MEAN_MOTION_DOT":0.00097492,"MEAN_MOTION_DDOT":0}]
